[
    {
        "Altitude(m)": 624792.8031300476,
        "Argument of Periapsis(deg)": 0.0,
        "Eccentricity": 0.0,
        "Inclination(deg)": 60.0,
        "Latitude(deg)": -59.14718172915444,
        "Longitude(deg)": -110.97368285857287,
        "Mean Anomaly(deg)": 261.8182,
        "RAAN(deg)": 95.0,
        "Satellite Name": "Test1 434",
        "Satellite Number": 434,
        "Semi-Major Axis(m)": 6980739.136638005,
        "Time(s)": 0
    },
    {
        "Altitude(m)": 624842.1954076752,
        "Argument of Periapsis(deg)": 0.00010418945913296404,
        "Eccentricity": 0.0,
        "Inclination(deg)": 60.0,
        "Latitude(deg)": -59.28926630955053,
        "Longitude(deg)": -109.84417614436221,
        "Mean Anomaly(deg)": 262.4383061454618,
        "RAAN(deg)": 94.99957995086027,
        "Satellite Name": "Test1 434",
        "Satellite Number": 434,
        "Semi-Major Axis(m)": 6980739.136638005,
        "Time(s)": 10
    },
    {
        "Altitude(m)": 624887.7634213967,
        "Argument of Periapsis(deg)": 0.0002083789182659281,
        "Eccentricity": 0.0,
        "Inclination(deg)": 60.0,
        "Latitude(deg)": -59.420740010074454,
        "Longitude(deg)": -108.70524875009068,
        "Mean Anomaly(deg)": 263.0584122909236,
        "RAAN(deg)": 94.99915990172052,
        "Satellite Name": "Test1 434",
        "Satellite Number": 434,
        "Semi-Major Axis(m)": 6980739.136638005,
        "Time(s)": 20
    },
    {
        "Altitude(m)": 624929.4892077825,
        "Argument of Periapsis(deg)": 0.00031256837739889213,
        "Eccentricity": 0.0,
        "Inclination(deg)": 60.0,
        "Latitude(deg)": -59.54146552758207,
        "Longitude(deg)": -107.55752298572567,
        "Mean Anomaly(deg)": 263.67851843638556,
        "RAAN(deg)": 94.99873985258078,
        "Satellite Name": "Test1 434",
        "Satellite Number": 434,
        "Semi-Major Axis(m)": 6980739.136638005,
        "Time(s)": 30
    },
    {
        "Altitude(m)": 624967.3563145682,
        "Argument of Periapsis(deg)": 0.0004167578365318562,
        "Eccentricity": 0.0,
        "Inclination(deg)": 60.0,
        "Latitude(deg)": -59.65131469240264,
        "Longitude(deg)": -106.40165614672433,
        "Mean Anomaly(deg)": 264.2986245818473,
        "RAAN(deg)": 94.99831980344103,
        "Satellite Name": "Test1 434",
        "Satellite Number": 434,
        "Semi-Major Axis(m)": 6980739.136638005,
        "Time(s)": 40
    },
    {
        "Altitude(m)": 625001.3498075942,
        "Argument of Periapsis(deg)": 0.0005209472956648203,
        "Eccentricity": 0.0,
        "Inclination(deg)": 60.0,
        "Latitude(deg)": -59.750169107440925,
        "Longitude(deg)": -105.23833967730631,
        "Mean Anomaly(deg)": 264.9187307273092,
        "RAAN(deg)": 94.99789975430129,
        "Satellite Name": "Test1 434",
        "Satellite Number": 434,
        "Semi-Major Axis(m)": 6980739.136638005,
        "Time(s)": 50
    },
    {
        "Altitude(m)": 625031.4562770992,
        "Argument of Periapsis(deg)": 0.0006251367547977843,
        "Eccentricity": 0.0,
        "Inclination(deg)": 60.0,
        "Latitude(deg)": -59.837920754206145,
        "Longitude(deg)": -104.06829649614633,
        "Mean Anomaly(deg)": -94.46116312722901,
        "RAAN(deg)": 94.99747970516155,
        "Satellite Name": "Test1 434",
        "Satellite Number": 434,
        "Semi-Major Axis(m)": 6980739.136638005,
        "Time(s)": 60
    },
    {
        "Altitude(m)": 625057.6638433733,
        "Argument of Periapsis(deg)": 0.0007293262139307483,
        "Eccentricity": 0.0,
        "Inclination(deg)": 60.0,
        "Latitude(deg)": -59.914472558931536,
        "Longitude(deg)": -102.89227800759238,
        "Mean Anomaly(deg)": -93.84105698176717,
        "RAAN(deg)": 94.9970596560218,
        "Satellite Name": "Test1 434",
        "Satellite Number": 434,
        "Semi-Major Axis(m)": 6980739.136638005,
        "Time(s)": 70
    },
    {
        "Altitude(m)": 625079.9621617448,
        "Argument of Periapsis(deg)": 0.0008335156730637124,
        "Eccentricity": 0.0,
        "Inclination(deg)": 60.0,
        "Latitude(deg)": -59.979738912152385,
        "Longitude(deg)": -101.71106232719865,
        "Mean Anomaly(deg)": -93.22095083630538,
        "RAAN(deg)": 94.99663960688207,
        "Satellite Name": "Test1 434",
        "Satellite Number": 434,
        "Semi-Major Axis(m)": 6980739.136638005,
        "Time(s)": 80
    },
    {
        "Altitude(m)": 625098.3424269606,
        "Argument of Periapsis(deg)": 0.0009377051321966765,
        "Eccentricity": 0.0,
        "Inclination(deg)": 60.0,
        "Latitude(deg)": -60.03364613546834,
        "Longitude(deg)": -100.52545071721123,
        "Mean Anomaly(deg)": -92.60084469084354,
        "RAAN(deg)": 94.99621955774232,
        "Satellite Name": "Test1 434",
        "Satellite Number": 434,
        "Semi-Major Axis(m)": 6980739.136638005,
        "Time(s)": 90
    },
    {
        "Altitude(m)": 625112.7973768731,
        "Argument of Periapsis(deg)": 0.0010418945913296407,
        "Eccentricity": 0.0,
        "Inclination(deg)": 60.0,
        "Latitude(deg)": -60.076132889695955,
        "Longitude(deg)": -99.33626377158556,
        "Mean Anomaly(deg)": -91.9807385453817,
        "RAAN(deg)": 94.99579950860257,
        "Satellite Name": "Test1 434",
        "Satellite Number": 434,
        "Semi-Major Axis(m)": 6980739.136638005,
        "Time(s)": 100
    },
    {
        "Altitude(m)": 625123.321295508,
        "Argument of Periapsis(deg)": 0.0011460840504626045,
        "Eccentricity": 0.0,
        "Inclination(deg)": 60.0,
        "Latitude(deg)": -60.107150519228476,
        "Longitude(deg)": -98.144338895049,
        "Mean Anomaly(deg)": -91.36063239991985,
        "RAAN(deg)": 94.99537945946284,
        "Satellite Name": "Test1 434",
        "Satellite Number": 434,
        "Semi-Major Axis(m)": 6980739.136638005,
        "Time(s)": 110
    },
    {
        "Altitude(m)": 625129.9100154656,
        "Argument of Periapsis(deg)": 0.0012502735095955685,
        "Eccentricity": 0.0,
        "Inclination(deg)": 60.0,
        "Latitude(deg)": -60.12666332814863,
        "Longitude(deg)": -96.95052608652163,
        "Mean Anomaly(deg)": -90.740526254458,
        "RAAN(deg)": 94.99495941032309,
        "Satellite Name": "Test1 434",
        "Satellite Number": 434,
        "Semi-Major Axis(m)": 6980739.136638005,
        "Time(s)": 120
    },
    {
        "Altitude(m)": 625132.5609196918,
        "Argument of Periapsis(deg)": 0.0013544629687285324,
        "Eccentricity": 0.0,
        "Inclination(deg)": 60.0,
        "Latitude(deg)": -60.13464878446525,
        "Longitude(deg)": -95.75568357962014,
        "Mean Anomaly(deg)": -90.12042010899621,
        "RAAN(deg)": 94.99453936118334,
        "Satellite Name": "Test1 434",
        "Satellite Number": 434,
        "Semi-Major Axis(m)": 6980739.136638005,
        "Time(s)": 130
    },
    {
        "Altitude(m)": 625131.2729425658,
        "Argument of Periapsis(deg)": 0.0014586524278614966,
        "Eccentricity": 0.0,
        "Inclination(deg)": 60.0,
        "Latitude(deg)": -60.13109764975916,
        "Longitude(deg)": -94.56067489597329,
        "Mean Anomaly(deg)": -89.50031396353434,
        "RAAN(deg)": 94.99411931204361,
        "Satellite Name": "Test1 434",
        "Satellite Number": 434,
        "Semi-Major Axis(m)": 6980739.136638005,
        "Time(s)": 140
    },
    {
        "Altitude(m)": 625126.0465703537,
        "Argument of Periapsis(deg)": 0.0015628418869944607,
        "Eccentricity": 0.0,
        "Inclination(deg)": 60.0,
        "Latitude(deg)": -60.11601403250245,
        "Longitude(deg)": -93.3663643305746,
        "Mean Anomaly(deg)": -88.88020781807253,
        "RAAN(deg)": 94.99369926290386,
        "Satellite Name": "Test1 434",
        "Satellite Number": 434,
        "Semi-Major Axis(m)": 6980739.136638005,
        "Time(s)": 150
    },
    {
        "Altitude(m)": 625116.8838410206,
        "Argument of Periapsis(deg)": 0.0016670313461274247,
        "Eccentricity": 0.0,
        "Inclination(deg)": 60.0,
        "Latitude(deg)": -60.08941536433306,
        "Longitude(deg)": -92.17361242820675,
        "Mean Anomaly(deg)": -88.2601016726107,
        "RAAN(deg)": 94.99327921376413,
        "Satellite Name": "Test1 434",
        "Satellite Number": 434,
        "Semi-Major Axis(m)": 6980739.136638005,
        "Time(s)": 160
    },
    {
        "Altitude(m)": 625103.7883433509,
        "Argument of Periapsis(deg)": 0.0017712208052603888,
        "Eccentricity": 0.0,
        "Inclination(deg)": 60.0,
        "Latitude(deg)": -60.05133229960416,
        "Longitude(deg)": -90.98327301017214,
        "Mean Anomaly(deg)": -87.63999552714891,
        "RAAN(deg)": 94.99285916462438,
        "Satellite Name": "Test1 434",
        "Satellite Number": 434,
        "Semi-Major Axis(m)": 6980739.136638005,
        "Time(s)": 170
    },
    {
        "Altitude(m)": 625086.765215468,
        "Argument of Periapsis(deg)": 0.001875410264393353,
        "Eccentricity": 0.0,
        "Inclination(deg)": 60.0,
        "Latitude(deg)": -60.0018085395572,
        "Longitude(deg)": -89.79618877111783,
        "Mean Anomaly(deg)": -87.01988938168708,
        "RAAN(deg)": 94.99243911548464,
        "Satellite Name": "Test1 434",
        "Satellite Number": 434,
        "Semi-Major Axis(m)": 6980739.136638005,
        "Time(s)": 180
    },
    {
        "Altitude(m)": 625065.8211426619,
        "Argument of Periapsis(deg)": 0.0019795997235263173,
        "Eccentricity": 0.0,
        "Inclination(deg)": 60.0,
        "Latitude(deg)": -59.940900583463446,
        "Longitude(deg)": -88.61318700261387,
        "Mean Anomaly(deg)": -86.39978323622523,
        "RAAN(deg)": 94.9920190663449,
        "Satellite Name": "Test1 434",
        "Satellite Number": 434,
        "Semi-Major Axis(m)": 6980739.136638005,
        "Time(s)": 190
    }
]